[{"OBJECT_NAME":"NUSAT-44 (MARIA MITCHELL)","OBJECT_ID":"2024-043AA","EPOCH":"2026-03-09T22:12:18.524160","MEAN_MOTION":15.29764305,"ECCENTRICITY":0.0007331,"INCLINATION":97.5299,"RA_OF_ASC_NODE":207.7691,"ARG_OF_PERICENTER":214.9017,"MEAN_ANOMALY":145.1743,"EPHEMERIS_TYPE":0,"CLASSIFICATION_TYPE":"U","NORAD_CAT_ID":59122,"ELEMENT_SET_NO":999,"REV_AT_EPOCH":11209,"BSTAR":0.00061063193,"MEAN_MOTION_DOT":0.00017562,"MEAN_MOTION_DDOT":0},{"OBJECT_NAME":"STARLINK-32016","OBJECT_ID":"2024-117F","EPOCH":"2026-03-09T07:12:30.443040","MEAN_MOTION":15.30179748,"ECCENTRICITY":0.00014331,"INCLINATION":53.1622,"RA_OF_ASC_NODE":39.1654,"ARG_OF_PERICENTER":81.2638,"MEAN_ANOMALY":278.8525,"EPHEMERIS_TYPE":0,"CLASSIFICATION_TYPE":"U","NORAD_CAT_ID":60096,"ELEMENT_SET_NO":999,"REV_AT_EPOCH":9682,"BSTAR":-2.2461654e-5,"MEAN_MOTION_DOT":-1.024e-5,"MEAN_MOTION_DDOT":0}]
